0 DELTA 1 DEB *
1 18599U 76077FE  13282.35460819 -.00006162  00000-0 -54526-1 0  8901
2 18599 100.7418 235.2485 0718418 279.0384 243.6631 11.71923871233773
0 DELTA 1 DEB *
1 18599U 76077FE  13283.37921263 -.00005911  00000-0 -52465-1 0  8911
2 18599 100.7396 236.0487 0716724 277.2601 246.3775 11.71915353233897
0 DELTA 1 DEB *
1 18599U 76077FE  13285.82061692 -.00006043  00000-0 -54200-1 0  8932
2 18599 100.7365 237.9579 0711491 273.0196 106.2871 11.71885659234183
0 DELTA 1 DEB *
1 18599U 76077FE  13286.84444819 -.00005552  00000-0 -49586-1 0  8947
2 18599 100.7381 238.7586 0713572 271.2580 105.5712 11.71871844234308
0 DELTA 1 DEB *
1 18599U 76077FE  13288.33100485 -.00005644  00000-0 -51068-1 0  8952
2 18599 100.7334 239.9203 0706722 268.6337 256.9652 11.71855534234474
0 DELTA 1 DEB *
1 18599U 76077FE  13290.37996362 -.00005855  00000-0 -53375-1 0  8964
2 18599 100.7307 241.5215 0702983 265.0360 260.8481 11.71835327234717
0 DELTA 1 DEB *
1 18599U 76077FE  13292.34471063 -.00005586  00000-0 -50940-1 0  8976
2 18599 100.7327 243.0558 0702844 261.6337 269.2436 11.71808683234941
0 DELTA 1 DEB *
1 18599U 76077FE  13292.82997398 -.00005627  00000-0 -51822-1 0  8980
2 18599 100.7276 243.4353 0697476 260.7188 156.3980 11.71802616235007
0 DELTA 1 DEB *
1 18599U 76077FE  13293.84577072 -.00005735  00000-0 -53017-1 0  8995
2 18599 100.7263 244.2287 0695527 258.9221 121.5376 11.71790651235121
0 DELTA 1 DEB *
1 18599U 76077FE  13295.33195690 -.00005648  00000-0 -52517-1 0  9003
2 18599 100.7241 245.3893 0692419 256.2798 270.9673 11.71775499235299
